OBJECT_NAME,OBJECT_ID,EPOCH,MEAN_MOTION,ECCENTRICITY,INCLINATION,RA_OF_ASC_NODE,ARG_OF_PERICENTER,MEAN_ANOMALY,EPHEMERIS_TYPE,CLASSIFICATION_TYPE,NORAD_CAT_ID,ELEMENT_SET_NO,REV_AT_EPOCH,BSTAR,MEAN_MOTION_DOT,MEAN_MOTION_DDOT
SAUDISAT 1C (SO-50),2002-058C,2026-07-19T22:14:27.684384,14.83103564,.00743805,64.5521,27.6843,256.4147,102.8667,0,U,27607,999,26931,.6450776E-4,.394E-5,0
SAUDISAT 2,2004-025F,2026-07-20T06:35:09.429216,14.56699867,.00243837,98.5523,202.1138,192.3046,167.7559,0,U,28371,999,17056,.3567665E-4,.11E-5,0
SAUDISAT 3,2007-012B,2026-07-19T19:57:26.731296,14.71441645,.00158144,98.1469,151.2568,120.9621,239.3142,0,U,31118,999,3254,.24332821E-4,.1E-5,0
PISAT,2016-059B,2026-07-19T23:24:11.103264,14.69034443,.00305535,97.8193,200.0217,100.2509,260.2145,0,U,41784,999,52455,.85038237E-4,.455E-5,0
FLYING LAPTOP,2017-042G,2026-07-20T07:29:24.316800,15.01331962,.00194053,97.4838,355.6037,16.2651,343.9193,0,U,42831,999,49142,.13498766E-3,.1686E-4,0
SALSAT,2020-068K,2026-07-19T23:26:01.225248,15.30211220,.00097251,97.8865,206.0496,176.0322,184.0997,0,U,46495,999,32037,.14328943E-3,.4107E-4,0
